{
 "type": "Feature",
 "properties": {
  "name": "John Jacobs Elementary School",
  "osmWayId": 121870035,
  "source": "OpenStreetMap, ODbL",
  "retrieved": "2026-08-05",
  "epsgProjected": 32612,
  "coordinatesProjected": [
   [
    397174.597,
    3720326.46
   ],
   [
    397173.596,
    3720231.009
   ],
   [
    397082.164,
    3720230.5
   ],
   [
    397081.085,
    3720234.649
   ],
   [
    397083.121,
    3720237.932
   ],
   [
    397082.773,
    3720240.095
   ],
   [
    397082.625,
    3720246.782
   ],
   [
    397079.575,
    3720249.307
   ],
   [
    397070.179,
    3720256.028
   ],
   [
    397066.756,
    3720258.472
   ],
   [
    397068.572,
    3720261.272
   ],
   [
    397071.363,
    3720265.693
   ],
   [
    397073.815,
    3720269.95
   ],
   [
    397075.87,
    3720274.207
   ],
   [
    397077.393,
    3720278.091
   ],
   [
    397078.611,
    3720281.801
   ],
   [
    397080.311,
    3720287.177
   ],
   [
    397081.631,
    3720293.757
   ],
   [
    397082.126,
    3720298.207
   ],
   [
    397082.443,
    3720304.561
   ],
   [
    397082.678,
    3720309.947
   ],
   [
    397082.866,
    3720319.552
   ],
   [
    397082.922,
    3720322.871
   ],
   [
    397082.961,
    3720324.924
   ],
   [
    397085.883,
    3720324.953
   ],
   [
    397160.578,
    3720325.717
   ]
  ]
 },
 "geometry": {
  "type": "Polygon",
  "coordinates": [
   [
    [
     -112.1078761,
     33.6182962
    ],
    [
     -112.1078756,
     33.6164042
    ],
    [
     -112.1100414,
     33.6163747
    ],
    [
     -112.110068,
     33.6164567
    ],
    [
     -112.1100206,
     33.6165222
    ],
    [
     -112.1100294,
     33.616565
    ],
    [
     -112.1100346,
     33.6166975
    ],
    [
     -112.1101075,
     33.6167469
    ],
    [
     -112.1103318,
     33.6168781
    ],
    [
     -112.1104135,
     33.6169258
    ],
    [
     -112.1103712,
     33.6169817
    ],
    [
     -112.1103062,
     33.6170699
    ],
    [
     -112.1102492,
     33.6171548
    ],
    [
     -112.1102016,
     33.6172396
    ],
    [
     -112.1101665,
     33.6173169
    ],
    [
     -112.1101386,
     33.6173907
    ],
    [
     -112.1100997,
     33.6174976
    ],
    [
     -112.1100701,
     33.6176283
    ],
    [
     -112.1100595,
     33.6177166
    ],
    [
     -112.1100536,
     33.6178426
    ],
    [
     -112.1100494,
     33.6179494
    ],
    [
     -112.1100474,
     33.6181398
    ],
    [
     -112.1100469,
     33.6182056
    ],
    [
     -112.1100465,
     33.6182463
    ],
    [
     -112.1099773,
     33.6182475
    ],
    [
     -112.108208,
     33.6182785
    ],
    [
     -112.1078761,
     33.6182962
    ]
   ]
  ]
 }
}
