{
 "type": "Feature",
 "properties": {
  "name": "Sunridge Elementary School",
  "osmWayId": 66166058,
  "source": "OpenStreetMap, ODbL",
  "retrieved": "2026-08-05",
  "epsgProjected": 32612,
  "coordinatesProjected": [
   [
    389087.368,
    3702834.662
   ],
   [
    388992.267,
    3702834.904
   ],
   [
    388990.613,
    3702835.077
   ],
   [
    388989.423,
    3702835.702
   ],
   [
    388988.013,
    3702837.14
   ],
   [
    388987.407,
    3702838.181
   ],
   [
    388987.078,
    3702839.532
   ],
   [
    388988.395,
    3702925.279
   ],
   [
    389088.295,
    3702924.166
   ],
   [
    389088.058,
    3702901.026
   ]
  ]
 },
 "geometry": {
  "type": "Polygon",
  "coordinates": [
   [
    [
     -112.192979,
     33.4588394
    ],
    [
     -112.1949656,
     33.4588245
    ],
    [
     -112.1950002,
     33.4588272
    ],
    [
     -112.1950252,
     33.4588379
    ],
    [
     -112.195055,
     33.4588628
    ],
    [
     -112.1950679,
     33.4588809
    ],
    [
     -112.1950751,
     33.4589045
    ],
    [
     -112.1950682,
     33.4604061
    ],
    [
     -112.1929811,
     33.4604067
    ],
    [
     -112.1929805,
     33.4600015
    ],
    [
     -112.192979,
     33.4588394
    ]
   ]
  ]
 }
}
