{
 "type": "Feature",
 "properties": {
  "name": "Dos Rios Elementary School",
  "osmWayId": 152752071,
  "source": "OpenStreetMap, ODbL",
  "retrieved": "2026-08-05",
  "epsgProjected": 32612,
  "coordinatesProjected": [
   [
    383898.461,
    3699346.464
   ],
   [
    383915.131,
    3699331.674
   ],
   [
    383917.524,
    3699305.336
   ],
   [
    383997.022,
    3699313.363
   ],
   [
    384033.054,
    3699312.256
   ],
   [
    384034.524,
    3699312.362
   ],
   [
    384036.129,
    3699313.395
   ],
   [
    384037.58,
    3699315.376
   ],
   [
    384038.012,
    3699318.62
   ],
   [
    384039.823,
    3699373.584
   ],
   [
    384043.805,
    3699522.204
   ],
   [
    384043.663,
    3699524.147
   ],
   [
    384043.056,
    3699526.391
   ],
   [
    384041.805,
    3699527.886
   ],
   [
    384039.664,
    3699529.351
   ],
   [
    384037.515,
    3699530.109
   ],
   [
    384034.723,
    3699530.225
   ],
   [
    383880.452,
    3699513.745
   ]
  ]
 },
 "geometry": {
  "type": "Polygon",
  "coordinates": [
   [
    [
     -112.249116,
     33.426975
    ],
    [
     -112.2488717,
     33.4267976
    ],
    [
     -112.2488324,
     33.4264777
    ],
    [
     -112.247681,
     33.4265869
    ],
    [
     -112.2471583,
     33.4265787
    ],
    [
     -112.247137,
     33.4265802
    ],
    [
     -112.2471139,
     33.426593
    ],
    [
     -112.2470932,
     33.4266173
    ],
    [
     -112.2470875,
     33.4266568
    ],
    [
     -112.2470708,
     33.4273254
    ],
    [
     -112.2470389,
     33.4291331
    ],
    [
     -112.2470413,
     33.4291567
    ],
    [
     -112.2470505,
     33.4291839
    ],
    [
     -112.2470689,
     33.4292019
    ],
    [
     -112.2471002,
     33.4292194
    ],
    [
     -112.2471315,
     33.4292283
    ],
    [
     -112.247172,
     33.4292293
    ],
    [
     -112.2494063,
     33.4290064
    ],
    [
     -112.249116,
     33.426975
    ]
   ]
  ]
 }
}
