{
 "type": "Feature",
 "properties": {
  "name": "Cactus Wren Elementary School",
  "osmWayId": 121203200,
  "source": "OpenStreetMap, ODbL",
  "retrieved": "2026-08-05",
  "epsgProjected": 32612,
  "coordinatesProjected": [
   [
    393743.408,
    3715633.953
   ],
   [
    393773.885,
    3715668.354
   ],
   [
    393776.842,
    3715668.692
   ],
   [
    393862.222,
    3715594.399
   ],
   [
    393884.794,
    3715574.321
   ],
   [
    393896.247,
    3715574.129
   ],
   [
    393893.697,
    3715437.894
   ],
   [
    393893.58,
    3715431.661
   ],
   [
    393892.316,
    3715428.813
   ],
   [
    393889.79,
    3715426.9
   ],
   [
    393738.85,
    3715428.345
   ]
  ]
 },
 "geometry": {
  "type": "Polygon",
  "coordinates": [
   [
    [
     -112.1451758,
     33.5754404
    ],
    [
     -112.1447386,
     33.5758628
    ],
    [
     -112.1446957,
     33.5758673
    ],
    [
     -112.1434435,
     33.5749754
    ],
    [
     -112.1431124,
     33.5747343
    ],
    [
     -112.142946,
     33.5747335
    ],
    [
     -112.1429612,
     33.5730766
    ],
    [
     -112.1429619,
     33.5730008
    ],
    [
     -112.1429798,
     33.572966
    ],
    [
     -112.1430162,
     33.5729424
    ],
    [
     -112.145209,
     33.5729397
    ],
    [
     -112.1451758,
     33.5754404
    ]
   ]
  ]
 }
}
